[{"OBJECT_NAME":"STARLINK-5510","OBJECT_ID":"2023-021V","EPOCH":"2026-03-09T17:57:19.096416","MEAN_MOTION":14.98333238,"ECCENTRICITY":0.00032648,"INCLINATION":70.0015,"RA_OF_ASC_NODE":184.1673,"ARG_OF_PERICENTER":270.0124,"MEAN_ANOMALY":90.0661,"EPHEMERIS_TYPE":0,"CLASSIFICATION_TYPE":"U","NORAD_CAT_ID":55647,"ELEMENT_SET_NO":999,"REV_AT_EPOCH":16880,"BSTAR":1.723613e-5,"MEAN_MOTION_DOT":1.13e-6,"MEAN_MOTION_DDOT":0},{"OBJECT_NAME":"CZ-6A DEB","OBJECT_ID":"2022-151ADF","EPOCH":"2026-03-09T04:17:36.420864","MEAN_MOTION":14.87187722,"ECCENTRICITY":0.00591597,"INCLINATION":98.625,"RA_OF_ASC_NODE":143.8674,"ARG_OF_PERICENTER":184.385,"MEAN_ANOMALY":175.6853,"EPHEMERIS_TYPE":0,"CLASSIFICATION_TYPE":"U","NORAD_CAT_ID":56583,"ELEMENT_SET_NO":999,"REV_AT_EPOCH":15845,"BSTAR":0.004175752,"MEAN_MOTION_DOT":0.00038922,"MEAN_MOTION_DDOT":0}]
